C/2009 T1 (McNaught),e,90.0126,54.4519,282.6476,1045,0.0000292,0.99403343,0.0000,10/07.5274/2009,2000,g  6.5,4.0
# From MPC 75711
P/2009 T2 (La Sagra),e,27.5167,215.7362,216.6028,7.730621,0.0458546,0.76552350,111.6858,09/09.0/2016,2000,g 14.0,4.0
# From MPC 82315
C/2009 T3 (LINEAR),e,148.6341,60.1618,32.4568,14998,0.0000005,0.99984846,0.0000,01/13.1213/2010,2000,g 12.5,4.0
# From MPC 70812
C/2009 U3 (Hill),e,51.0937,49.1122,77.8778,180.0674,0.0004079,0.99212745,0.0000,03/20.3730/2010,2000,g 13.0,4.0
# From MPC 75711
P/2009 U4 (McNaught),e,10.0808,55.3700,259.8687,5.076171,0.0861786,0.67491314,221.4151,09/09.0/2016,2000,g 14.0,4.0
# From MPC 82315
C/2009 U5 (Grauer),h,06/24.3644/2010,25.4583,121.0068,24.2249,1.004567,6.117382,2000,7.0,4.0
# From MPC 82315
C/2009 UG89 (Lemmon),h,12/13.0040/2010,130.0860,321.0542,60.5746,1.005358,3.933387,2000,9.0,4.0
# From MPC 72851
C/2009 W2 (Boattini),e,164.5083,199.6299,121.7174,9521,0.0000011,0.99927314,0.0000,05/06.9860/2010,2000,g  7.0,4.0
# From MPC 75711
P/2009 WX51 (Catalina),e,9.6000,31.6706,118.1092,3.075846,0.1827078,0.74098236,80.7133,09/09.0/2016,2000,g 19.0,2.0
# From MPC 82316
C/2009 Y1 (Catalina),e,107.3461,160.3531,127.2608,355.3486,0.0001471,0.99294309,0.0000,01/29.8138/2011,2000,g  9.0,4.0
# From MPC 74247
P/2009 Y2 (Kowalski),e,29.9741,262.0086,172.4357,6.538679,0.0589480,0.63775379,139.0533,09/09.0/2016,2000,g 13.0,4.0
# From MPC 69417
P/2010 A1 (Hill),e,10.3095,47.3286,13.3522,4.386225,0.1072921,0.55409248,277.8287,09/09.0/2016,2000,g 13.0,4.0
# From MPC 86226
P/2010 A2 (LINEAR),e,5.2562,320.2223,132.9076,2.290066,0.2844016,0.12444466,342.8128,09/09.0/2016,2000,g 15.5,4.0
# From MPC 75711
P/2010 A3 (Hill),e,14.9947,64.7334,41.4233,6.071904,0.0658744,0.73243580,154.8030,09/09.0/2016,2000,g 14.0,4.0
# From MPC 77403
C/2010 A4 (Siding Spring),e,96.7998,346.7393,271.6522,285.9095,0.0002039,0.99045255,0.0000,10/10.2873/2010,2000,g 12.5,4.0
# From MPC 72851
P/2010 A5 (LINEAR),e,5.7873,277.7455,306.9156,5.091441,0.0857912,0.66506557,200.1242,09/09.0/2016,2000,g 13.0,4.0
# From MPC 80896
C/2010 B1 (Cardinal),h,02/08.0338/2011,101.8862,277.2437,211.6815,1.000218,2.946700,2000,7.5,4.0
# From MPC 75712
P/2010 B2 (WISE),e,8.9385,0.8503,155.9620,3.106587,0.1800026,0.48097186,81.6453,09/09.0/2016,2000,g 17.0,4.0
# From MPC 75008
P/2010 C1 (Scotti),e,9.1400,141.8808,3.9877,7.087883,0.0522311,0.26092117,129.0492,09/09.0/2016,2000,g  9.5,4.0
# From MPC 75712
P/2010 D1 (WISE),e,9.6307,160.8087,226.1919,4.164292,0.1159824,0.35428358,305.9195,09/09.0/2016,2000,g 13.0,4.0
# From MPC 75008
P/2010 D2 (WISE),e,57.1220,319.7999,120.3870,6.711254,0.0566890,0.45141164,135.0697,09/09.0/2016,2000,g 16.0,4.0
# From MPC 84315
C/2010 D3 (WISE),e,76.3461,255.1300,304.5643,163755,0.0000000,0.99997411,0.0000,09/04.0433/2010,2000,g  9.0,4.0
# From MPC 76025
C/2010 D4 (WISE),e,105.7268,266.7748,44.3182,62.06520,0.0020157,0.88485627,5.4916,09/09.0/2016,2000,g  6.5,4.0
# From MPC 74248
C/2010 DG56 (WISE),e,160.4068,4.1711,318.4944,68.16920,0.0017511,0.97678145,0.0000,05/17.0067/2010,2000,g 16.0,4.0
# From MPC 70361
C/2010 E1 (Garradd),e,71.5965,169.1339,297.1745,112.9237,0.0008213,0.97629120,0.0000,11/06.0304/2009,2000,g 11.5,4.0
# From MPC 75009
P/2010 E2 (Jarnac),e,15.4725,177.8057,8.2569,8.618842,0.0389521,0.72276749,91.2909,09/09.0/2016,2000,g 14.0,4.0
# From MPC 70361
C/2010 E5 (Scotti),e,18.9090,16.9068,147.9995,24.94816,0.0079095,0.84399117,19.6381,09/09.0/2016,2000,g 10.5,4.0
# From MPC 72132
C/2010 F1 (Boattini),e,64.8491,344.2744,127.7408,69.68559,0.0016943,0.94824630,4.2289,09/09.0/2016,2000,g  9.5,4.0
# From MPC 82316
C/2010 F3 (Scotti),e,4.6503,157.3093,31.3658,64.10070,0.0019205,0.91498511,4.2757,09/09.0/2016,2000,g  8.5,4.0
# From MPC 82316
C/2010 FB87 (WISE-Garradd),e,107.7808,89.9738,265.0597,223.0246,0.0002959,0.98720875,0.0000,11/04.7450/2010,2000,g 10.0,4.0
# From MPC 70816
C/2010 G1 (Boattini),e,78.3043,287.4799,168.8303,544.4258,0.0000776,0.99776711,0.0000,04/02.2665/2010,2000,g 12.5,4.0
# From MPC 83142
C/2010 G2 (Hill),e,103.7646,246.9615,137.4711,93.96948,0.0010820,0.97890184,0.0000,09/01.8392/2011,2000,g  8.0,4.0
# From MPC 75292
C/2010 G3 (WISE),e,108.2508,313.7645,75.1694,997.6304,0.0000313,0.99507280,0.0000,04/07.2151/2010,2000,g  8.5,4.0
# From MPC 82316
C/2010 H1 (Garradd),e,36.6036,347.3546,233.7130,2362,0.0000086,0.99884210,0.0000,06/20.5529/2010,2000,g 13.0,4.0
# From MPC 72851
P/2010 H2 (Vales),e,14.2623,64.2960,129.6505,3.841342,0.1309120,0.19398521,311.2113,09/09.0/2016,2000,g  6.0,4.0
# From MPC 70361
P/2010 H3 (SOHO),e,23.8771,78.3141,24.8763,3.068600,0.1833554,0.98467258,0.0000,09/25.8069/2015,2000,g 20.0,2.0
# From MPC 73463
P/2010 H4 (Scotti),e,2.3228,44.7567,179.2935,6.581278,0.0583766,0.26893396,132.7923,09/09.0/2016,2000,g 10.5,4.0
# From MPC 74637
P/2010 H5 (Scotti),e,14.0873,24.7982,174.8252,7.136035,0.0517033,0.15659778,120.9693,09/09.0/2016,2000,g 13.0,2.0
# From MPC 71278
C/2010 J1 (Boattini),e,134.4601,254.6680,332.8224,35.98537,0.0045658,0.95302304,11.0050,09/09.0/2016,2000,g 12.0,4.0
# From MPC 75712
C/2010 J2 (McNaught),e,125.8656,311.8449,4.4341,1554,0.0000161,0.99782899,0.0000,06/02.1673/2010,2000,g  9.0,4.0
# From MPC 82316
P/2010 J3 (McMillan),e,13.2614,106.5240,157.3799,8.958492,0.0367580,0.72694913,81.1479,09/09.0/2016,2000,g 11.0,4.0
# From MPC 76025
P/2010 J5 (McNaught),e,7.3542,65.6414,148.4653,4.106685,0.1184314,0.08746744,298.3141,09/09.0/2016,2000,g 10.0,4.0
# From MPC 84315
P/2010 JC81 (WISE),e,38.6061,30.8325,12.6182,8.132295,0.0424996,0.77609170,83.5283,09/09.0/2016,2000,g  9.0,4.0
# From MPC 74248
C/2010 KW7 (WISE),e,147.0724,104.9721,332.6624,97.87294,0.0010179,0.97361236,0.0000,10/11.3790/2010,2000,g 15.0,2.0
# From MPC 83518
C/2010 L3 (Catalina),h,11/10.4895/2010,102.5070,38.2824,121.8273,1.001337,9.890805,2000,4.5,4.0
# From MPC 74248
C/2010 L4 (WISE),e,102.8356,125.5223,95.6583,79.99646,0.0013775,0.96484704,3.2887,09/09.0/2016,2000,g 11.5,4.0
# From MPC 74248
C/2010 L5 (WISE),e,146.8616,206.3712,214.3428,8.027532,0.0433342,0.90276655,101.0460,09/09.0/2016,2000,g 18.0,4.0
# From MPC 70817
C/2010 M1 (Gibbs),p,02/07.840/2012,78.373,265.318,2.29869,82.150,2000,9.0,4.0
# From MPC 73463
P/2010 P4 (WISE),e,24.0790,2.2340,354.1628,3.704285,0.1382444,0.49766271,312.5389,09/09.0/2016,2000,g 19.5,6.0
# From MPC 88325
C/2010 R1 (LINEAR),e,156.9256,343.6791,114.5341,7287,0.0000016,0.99922719,0.0000,05/16.7986/2012,2000,g  6.0,4.0
# From MPC 95208
C/2010 S1 (LINEAR),h,05/19.6214/2013,125.3205,93.4349,118.5450,1.002463,5.896400,2000,3.5,4.0
# From MPC 74248
P/2010 T2 (PANSTARRS),e,8.0312,59.5728,355.7954,5.490192,0.0766166,0.31626139,144.9963,09/09.0/2016,2000,g 11.5,4.0
# From MPC 81468
P/2010 TO20 (LINEAR-Grauer),e,2.4820,43.2815,271.3706,5.803791,0.0704914,0.05373667,196.2514,09/09.0/2016,2000,g  9.0,4.0
# From MPC 82316
P/2010 U1 (Boattini),e,8.2179,280.7787,86.3256,6.516589,0.0592480,0.24741317,142.8041,09/09.0/2016,2000,g  9.5,4.0
# From MPC 74249
P/2010 U2 (Hill),e,16.8290,357.0986,44.3978,4.282254,0.1112232,0.40042214,237.4441,09/09.0/2016,2000,g 13.0,4.0
# From MPC101094
C/2010 U3 (Boattini),h,02/25.5674/2019,55.5075,43.0665,88.0457,1.001810,8.446561,2000,1.0,4.0
# From MPC 79021
P/2010 UH55 (Spacewatch),e,8.6084,235.1337,222.5480,6.577828,0.0584225,0.57591635,113.4015,09/09.0/2016,2000,g 11.0,4.0
# From MPC 75009
P/2010 WK (LINEAR),e,11.4178,11.4074,41.1557,5.752184,0.0714422,0.68974427,153.9942,09/09.0/2016,2000,g 14.5,2.0
# From MPC 76025
C/2010 X1 (Elenin),e,1.8683,322.2443,344.4083,468.2337,0.0000973,0.99898779,0.0000,09/09.4689/2011,2000,g 10.0,4.0
# From MPC 82317
P/2011 A2 (Scotti),e,4.4754,54.6731,94.6443,3.105199,0.1801233,0.49991821,15.6685,09/09.0/2016,2000,g 16.5,4.0
# From MPC 85831
C/2011 A3 (Gibbs),e,26.0804,124.8387,141.0212,739.1517,0.0000490,0.99684267,0.0000,12/16.6864/2011,2000,g 10.0,4.0
# From MPC 82317
C/2011 C1 (McNaught),e,16.3106,191.2549,85.6893,490.7349,0.0000907,0.99820173,0.0000,04/17.7089/2011,2000,g 15.5,4.0
# From MPC 84021
P/2011 C2 (Gibbs),e,10.8906,12.0983,160.9654,7.401779,0.0489440,0.27131650,83.3181,09/09.0/2016,2000,g  9.0,4.0
# From MPC 75516
C/2011 C3 (Gibbs),e,49.5313,20.8292,206.7530,293.0076,0.0001965,0.99484301,0.0000,04/08.6325/2011,2000,g 17.0,4.0
# From MPC 86639
P/2011 CR42 (Catalina),e,8.4642,58.7288,173.2769,3.505615,0.1501612,0.28078142,262.0499,09/09.0/2016,2000,g 13.0,2.0
# From MPC 89309
C/2011 F1 (LINEAR),e,56.6781,85.0478,192.4817,2147,0.0000099,0.99915465,0.0000,01/08.0258/2013,2000,g  5.0,4.0
# From MPC 79866
P/2011 FR143 (Lemmon),e,16.0196,190.9192,350.0589,6.839428,0.0551029,0.45396633,110.6403,09/09.0/2016,2000,g 14.0,2.0
# From MPC 80044
C/2011 G1 (McNaught),h,09/16.1652/2011,162.2335,153.0053,355.0761,1.000902,2.164036,2000,12.0,4.0
# From MPC101094
C/2011 J2 (LINEAR),h,12/25.7393/2013,122.8000,163.9430,85.3239,1.001581,3.442943,2000,5.5,3.6
# From MPEC 2015-K84
C/2011 J2-B (LINEAR),h,12/25.6165/2013,122.8026,163.9395,85.2813,1.002342,3.442145,2000,9.0,3.6
# From unp
C/2011 J2-C (LINEAR),h,12/25.7090/2013,122.7980,163.9447,85.2985,1.002378,3.441982,2000,11.0,3.6
# From MPC 75713
C/2011 J3 (LINEAR),e,114.4282,21.5770,27.8336,19.60906,0.0113506,0.92614376,23.3311,09/09.0/2016,2000,g 15.0,4.0
# From MPC 82317
P/2011 JB15 (Spacewatch-Boattini),e,19.1555,153.7305,110.5653,7.343600,0.0495268,0.31812624,83.9391,09/09.0/2016,2000,g  9.0,4.0
# From MPC 75516
C/2011 K1 (Schwartz-Holvorcem),e,122.6096,70.6255,166.8869,3430,0.0000049,0.99901686,0.0000,04/20.0531/2011,2000,g 12.0,4.0
# From MPC101094
C/2011 KP36 (Spacewatch),e,18.9867,173.4003,180.5885,38.41642,0.0041393,0.87288597,0.4354,09/09.0/2016,2000,g  4.5,4.0
# From MPC 83518
C/2011 L1 (McNaught),e,65.4890,252.2127,294.4267,11.02917,0.0269085,0.79727665,56.2639,09/09.0/2016,2000,g 11.0,4.0
# From MPC 78588
C/2011 L2 (McNaught),e,104.3319,131.3903,257.0083,5774,0.0000022,0.99966252,0.0000,10/30.0440/2011,2000,g 12.5,4.0
# From MPC 77405
